[{"OBJECT_NAME":"JILIN-1 GAOFEN 3A","OBJECT_ID":"2019-032C","EPOCH":"2026-03-09T17:53:24.364896","MEAN_MOTION":15.3027131,"ECCENTRICITY":0.00026181,"INCLINATION":44.9746,"RA_OF_ASC_NODE":183.2861,"ARG_OF_PERICENTER":111.29,"MEAN_ANOMALY":248.8263,"EPHEMERIS_TYPE":0,"CLASSIFICATION_TYPE":"U","NORAD_CAT_ID":44312,"ELEMENT_SET_NO":999,"REV_AT_EPOCH":37259,"BSTAR":0.00055381133,"MEAN_MOTION_DOT":0.00016264,"MEAN_MOTION_DDOT":0},{"OBJECT_NAME":"STARLINK-31491","OBJECT_ID":"2024-036P","EPOCH":"2026-03-09T06:28:46.954560","MEAN_MOTION":15.30188703,"ECCENTRICITY":0.00012684,"INCLINATION":53.1605,"RA_OF_ASC_NODE":80.4539,"ARG_OF_PERICENTER":93.1729,"MEAN_ANOMALY":266.9417,"EPHEMERIS_TYPE":0,"CLASSIFICATION_TYPE":"U","NORAD_CAT_ID":59011,"ELEMENT_SET_NO":999,"REV_AT_EPOCH":11525,"BSTAR":4.0748234e-5,"MEAN_MOTION_DOT":8.47e-6,"MEAN_MOTION_DDOT":0}]
