JILIN-1 GAOFEN 3A       
1 44312U 19032C   26068.74542089  .00016264  00000+0  55381-3 0  9993
2 44312  44.9746 183.2861 0002618 111.2900 248.8263 15.30271310372592
STARLINK-31491          
1 59011U 24036P   26068.26998790  .00000847  00000+0  40748-4 0  9998
2 59011  53.1605  80.4539 0001268  93.1729 266.9417 15.30188703115250
